GSAT0215 (GALILEO 19)   
1 43055U 17079A   26160.97660892  .00000049  00000+0  00000+0 0  9994
2 43055  55.0750 221.7051 0003311 266.3689  93.6775  1.70474602 52866
GSAT0216 (GALILEO 20)   
1 43056U 17079B   26158.33485928  .00000042  00000+0  00000+0 0  9990
2 43056  55.0761 221.7781 0004156 276.5849  83.4502  1.70474847 52831
GSAT0217 (GALILEO 21)   
1 43057U 17079C   26160.31538817  .00000046  00000+0  00000+0 0  9992
2 43057  55.0739 221.7216 0003894 284.8595  75.1799  1.70474233 52855
GSAT0218 (GALILEO 22)   
1 43058U 17079D   26159.36230164  .00000044  00000+0  00000+0 0  9998
2 43058  55.0742 221.7453 0004131 273.2781  86.7561  1.70474754 52861
BEIDOU-3 M7             
1 43107U 18003A   26160.29611562 -.00000061  00000+0  00000+0 0  9990
2 43107  54.3360 302.5906 0004933  91.8835 268.1636  1.86228375 57204
BEIDOU-3 M8             
1 43108U 18003B   26158.63015616 -.00000056  00000+0  00000+0 0  9998
2 43108  54.3300 302.6304 0002450 266.3856  93.5786  1.86231337 57181
BEIDOU-3 M4             
1 43207U 18018A   26160.14697339 -.00000046  00000+0  00000+0 0  9990
2 43207  56.6432  63.4146 0007648  17.0945 342.9557  1.86231369 56598
BEIDOU-3 M3             
1 43208U 18018B   26159.13953664 -.00000042  00000+0  00000+0 0  9990
2 43208  56.6424  63.4518 0008812 338.8483  21.1416  1.86231220 56572
BEIDOU-3 M9             
1 43245U 18029A   26160.96818427 -.00000062  00000+0  00000+0 0  9995
2 43245  54.2016 300.2022 0000857 145.1920 214.8030  1.86228360 55766
BEIDOU-3 M10            
1 43246U 18029B   26159.82866984 -.00000059  00000+0  00000+0 0  9996
2 43246  54.1998 300.2680 0004005  38.0301 321.9899  1.86229508 55721
IRNSS-1I                
1 43286U 18035A   26160.85164676  .00000089  00000+0  00000+0 0  9993
2 43286  28.7370  74.3113 0017838 182.3918   2.9871  1.00270544 30003
COSMOS 2527 [GLONASS-M] 
1 43508U 18053A   26160.10720758 -.00000018  00000+0  00000+0 0  9990
2 43508  65.5731  74.1771 0007419 241.4436 118.5010  2.13102340 62102
BEIDOU-2 IGSO-7         
1 43539U 18057A   26161.43299414  .00000040  00000+0  00000+0 0  9999
2 43539  55.1935 163.1168 0104879 237.9408 124.0886  1.00253264 29061
GSAT0221 (GALILEO 25)   
1 43564U 18060A   26159.85282838 -.00000062  00000+0  00000+0 0  9991
2 43564  57.1744 342.0053 0002693 307.8852  52.1066  1.70475958 49023
GSAT0222 (GALILEO 26)   
1 43565U 18060B   26160.07247246 -.00000062  00000+0  00000+0 0  9992
2 43565  57.1770 342.0033 0001913 251.8832 108.1122  1.70475681 49074
GSAT0219 (GALILEO 23)   
1 43566U 18060C   26158.53362059 -.00000063  00000+0  00000+0 0  9992
2 43566  57.1754 342.0461 0002283 330.3501  29.6519  1.70475974 49026
GSAT0220 (GALILEO 24)   
1 43567U 18060D   26159.34118285 -.00000062  00000+0  00000+0 0  9992
2 43567  57.1759 342.0253 0002253 317.6959  42.3025  1.70475807 49022
BEIDOU-3 M5             
1 43581U 18062A   26161.12670262  .00000125  00000+0  00000+0 0  9996
2 43581  54.0850 182.5441 0005618 288.5929  71.4080  1.86228834 53508
BEIDOU-3 M6             
1 43582U 18062B   26158.84230036  .00000103  00000+0  00000+0 0  9999
2 43582  54.0845 182.6111 0004788   9.6805 350.3844  1.86227922 53469
BEIDOU-3 M12            
1 43602U 18067A   26159.31766145  .00000110  00000+0  00000+0 0  9993
2 43602  54.1798 181.3412 0007741  30.1174 329.9822  1.86227940 52951
BEIDOU-3 M11            
1 43603U 18067B   26157.84181631  .00000093  00000+0  00000+0 0  9991
2 43603  54.1771 181.3547 0004475  14.0592 346.0057  1.86227396 52953
BEIDOU-3 M13            
1 43622U 18072A   26157.25976809 -.00000038  00000+0  00000+0 0  9992
2 43622  56.6156  63.0201 0007663 326.1226  33.8571  1.86231624 52450
BEIDOU-3 M14            
1 43623U 18072B   26160.88388253 -.00000050  00000+0  00000+0 0  9990
2 43623  56.6199  62.8954 0006213 356.8408   3.1791  1.86231551 52512
BEIDOU-3 M16            
1 43647U 18078A   26159.42848971 -.00000058  00000+0  00000+0 0  9996
2 43647  54.0984 300.2932 0007334  40.8019 319.2453  1.86232291 51999
BEIDOU-3 M15            
1 43648U 18078B   26152.57744501 -.00000074  00000+0  00000+0 0  9998
2 43648  54.1007 300.5335 0004536  56.3394 303.6792  1.86232507 51887
BEIDOU-3 G1             
1 43683U 18085A   26161.30038258 -.00000091  00000+0  00000+0 0  9990
2 43683   2.8497  97.5761 0008387 347.8328  81.3711  1.00271278 27998
COSMOS 2529 [GLONASS-M] 
1 43687U 18086A   26160.20377877  .00000105  00000+0  00000+0 0  9991
2 43687  64.2943 192.8640 0011758 256.1207 103.8195  2.13102176 59119
BEIDOU-3 M17            
1 43706U 18093A   26161.33752816  .00000126  00000+0  00000+0 0  9999
2 43706  54.1687 182.5289 0010074 291.4531  73.5567  1.86228354 51418
BEIDOU-3 M18            
1 43707U 18093B   26160.11941244  .00000117  00000+0  00000+0 0  9990
2 43707  54.1692 182.5623 0007926 320.0800  39.9208  1.86226825 51382
NAVSTAR 77 (USA 289)    
1 43873U 18109A   26161.28377947 -.00000002  00000+0  00000+0 0  9998
2 43873  55.6776  92.4596 0038193 198.0647 341.1401  2.00561290 54937
BEIDOU-3 IGSO-1         
1 44204U 19023A   26157.95428288 -.00000215  00000+0  00000+0 0  9993
2 44204  58.6799  37.7569 0025434 225.6649  92.8731  1.00294886  7105
